{
  "type": "FeatureCollection",
  "features": [
    {
      "type": "Feature",
      "properties": {
        "norad_id": 43823,
        "name": "GEO-KOMPSAT-2A",
        "group": "weather",
        "lat": -0.002293232046262227,
        "lon": -63.40915042472917,
        "alt_km": 35787.0934603605,
        "timestamp": "2025-12-02T06:27:52.664031+00:00",
        "meta_object_name": "GEO-KOMPSAT-2A",
        "meta_object_id": "2018-100A",
        "meta_epoch": "2025-12-01T19:33:41.251392",
        "meta_mean_motion": 1.00270851,
        "meta_eccentricity": 5.87e-05,
        "meta_inclination": 0.0616,
        "meta_ra_of_asc_node": 123.5731,
        "meta_arg_of_pericenter": 66.706,
        "meta_mean_anomaly": 302.3403,
        "meta_ephemeris_type": 0,
        "meta_classification_type": "U",
        "meta_norad_cat_id": 43823,
        "meta_element_set_no": 999,
        "meta_rev_at_epoch": 2565,
        "meta_bstar": 0,
        "meta_mean_motion_dot": -3.22e-06,
        "meta_mean_motion_ddot": 0,
        "tle_line1": "1 43823U 18100A   25335.81506078 -.00000322  00000+0  00000+0 0  9999",
        "tle_line2": "2 43823   0.0616 123.5731 0000587  66.7060 302.3403  1.00270851 25659"
      },
      "geometry": {
        "type": "Point",
        "coordinates": [
          -63.40915042472917,
          -0.002293232046262227
        ]
      }
    },
    {
      "type": "Feature",
      "properties": {
        "norad_id": 44387,
        "name": "METEOR-M2 2",
        "group": "weather",
        "lat": -1.1196117881151961,
        "lon": -43.9540762478295,
        "alt_km": 814.5278227055278,
        "timestamp": "2025-12-02T06:27:52.664042+00:00",
        "meta_object_name": "METEOR-M2 2",
        "meta_object_id": "2019-038A",
        "meta_epoch": "2025-12-01T20:21:14.040288",
        "meta_mean_motion": 14.24283765,
        "meta_eccentricity": 7.98e-05,
        "meta_inclination": 98.8961,
        "meta_ra_of_asc_node": 315.4442,
        "meta_arg_of_pericenter": 171.6466,
        "meta_mean_anomaly": 188.4726,
        "meta_ephemeris_type": 0,
        "meta_classification_type": "U",
        "meta_norad_cat_id": 44387,
        "meta_element_set_no": 999,
        "meta_rev_at_epoch": 33320,
        "meta_bstar": 0.00010235,
        "meta_mean_motion_dot": 1.9e-06,
        "meta_mean_motion_ddot": 0,
        "tle_line1": "1 44387U 19038A   25335.84807917  .00000190  00000+0  10235-3 0  9992",
        "tle_line2": "2 44387  98.8961 315.4442 0000798 171.6466 188.4726 14.24283765333206"
      },
      "geometry": {
        "type": "Point",
        "coordinates": [
          -43.9540762478295,
          -1.1196117881151961
        ]
      }
    },
    {
      "type": "Feature",
      "properties": {
        "norad_id": 47719,
        "name": "ARKTIKA-M 1",
        "group": "weather",
        "lat": 60.5056588249323,
        "lon": 148.76900936969142,
        "alt_km": 36902.94419485784,
        "timestamp": "2025-12-02T06:27:52.664055+00:00",
        "meta_object_name": "ARKTIKA-M 1",
        "meta_object_id": "2021-016A",
        "meta_epoch": "2025-12-01T02:41:41.634816",
        "meta_mean_motion": 2.00613156,
        "meta_eccentricity": 0.7197471,
        "meta_inclination": 63.1756,
        "meta_ra_of_asc_node": 85.6045,
        "meta_arg_of_pericenter": 269.084,
        "meta_mean_anomaly": 15.7076,
        "meta_ephemeris_type": 0,
        "meta_classification_type": "U",
        "meta_norad_cat_id": 47719,
        "meta_element_set_no": 999,
        "meta_rev_at_epoch": 3481,
        "meta_bstar": 0,
        "meta_mean_motion_dot": -1.2e-07,
        "meta_mean_motion_ddot": 0,
        "tle_line1": "1 47719U 21016A   25335.11228744 -.00000012  00000+0  00000+0 0  9997",
        "tle_line2": "2 47719  63.1756  85.6045 7197471 269.0840  15.7076  2.00613156 34817"
      },
      "geometry": {
        "type": "Point",
        "coordinates": [
          148.76900936969142,
          60.5056588249323
        ]
      }
    },
    {
      "type": "Feature",
      "properties": {
        "norad_id": 49008,
        "name": "FENGYUN 3E",
        "group": "weather",
        "lat": 54.58763418251475,
        "lon": 169.42160428501532,
        "alt_km": 821.084152421292,
        "timestamp": "2025-12-02T06:27:52.664068+00:00",
        "meta_object_name": "FENGYUN 3E",
        "meta_object_id": "2021-062A",
        "meta_epoch": "2025-12-01T21:25:28.625952",
        "meta_mean_motion": 14.19877598,
        "meta_eccentricity": 8.25e-05,
        "meta_inclination": 98.7476,
        "meta_ra_of_asc_node": 336.5425,
        "meta_arg_of_pericenter": 332.6664,
        "meta_mean_anomaly": 27.4469,
        "meta_ephemeris_type": 0,
        "meta_classification_type": "U",
        "meta_norad_cat_id": 49008,
        "meta_element_set_no": 999,
        "meta_rev_at_epoch": 22858,
        "meta_bstar": 4.1333e-05,
        "meta_mean_motion_dot": 4.4e-07,
        "meta_mean_motion_ddot": 0,
        "tle_line1": "1 49008U 21062A   25335.89269243  .00000044  00000+0  41333-4 0  9998",
        "tle_line2": "2 49008  98.7476 336.5425 0000825 332.6664  27.4469 14.19877598228583"
      },
      "geometry": {
        "type": "Point",
        "coordinates": [
          169.42160428501532,
          54.58763418251475
        ]
      }
    },
    {
      "type": "Feature",
      "properties": {
        "norad_id": 51850,
        "name": "GOES 18",
        "group": "weather",
        "lat": -0.0037220031893325308,
        "lon": 31.32733716522181,
        "alt_km": 35787.14897331729,
        "timestamp": "2025-12-02T06:27:52.664080+00:00",
        "meta_object_name": "GOES 18",
        "meta_object_id": "2022-021A",
        "meta_epoch": "2025-12-01T18:17:56.004864",
        "meta_mean_motion": 1.00270199,
        "meta_eccentricity": 6.48e-05,
        "meta_inclination": 0.0088,
        "meta_ra_of_asc_node": 74.7994,
        "meta_arg_of_pericenter": 212.5586,
        "meta_mean_anomaly": 281.0078,
        "meta_ephemeris_type": 0,
        "meta_classification_type": "U",
        "meta_norad_cat_id": 51850,
        "meta_element_set_no": 999,
        "meta_rev_at_epoch": 461,
        "meta_bstar": 0,
        "meta_mean_motion_dot": 1.18e-06,
        "meta_mean_motion_ddot": 0,
        "tle_line1": "1 51850U 22021A   25335.76245376  .00000118  00000+0  00000+0 0  9992",
        "tle_line2": "2 51850   0.0088  74.7994 0000648 212.5586 281.0078  1.00270199  4610"
      },
      "geometry": {
        "type": "Point",
        "coordinates": [
          31.32733716522181,
          -0.0037220031893325308
        ]
      }
    },
    {
      "type": "Feature",
      "properties": {
        "norad_id": 54234,
        "name": "NOAA 21 (JPSS-2)",
        "group": "weather",
        "lat": 35.1724170082634,
        "lon": 98.9356967917076,
        "alt_km": 824.4797170366273,
        "timestamp": "2025-12-02T06:27:52.664092+00:00",
        "meta_object_name": "NOAA 21 (JPSS-2)",
        "meta_object_id": "2022-150A",
        "meta_epoch": "2025-12-01T19:38:15.196416",
        "meta_mean_motion": 14.19519096,
        "meta_eccentricity": 0.0002568,
        "meta_inclination": 98.7445,
        "meta_ra_of_asc_node": 272.2636,
        "meta_arg_of_pericenter": 58.3449,
        "meta_mean_anomaly": 301.7977,
        "meta_ephemeris_type": 0,
        "meta_classification_type": "U",
        "meta_norad_cat_id": 54234,
        "meta_element_set_no": 999,
        "meta_rev_at_epoch": 15854,
        "meta_bstar": 6.758e-05,
        "meta_mean_motion_dot": 9.9e-07,
        "meta_mean_motion_ddot": 0,
        "tle_line1": "1 54234U 22150A   25335.81823144  .00000099  00000+0  67580-4 0  9994",
        "tle_line2": "2 54234  98.7445 272.2636 0002568  58.3449 301.7977 14.19519096158541"
      },
      "geometry": {
        "type": "Point",
        "coordinates": [
          98.9356967917076,
          35.1724170082634
        ]
      }
    },
    {
      "type": "Feature",
      "properties": {
        "norad_id": 54743,
        "name": "METEOSAT-12 (MTG-I1)",
        "group": "weather",
        "lat": 0.46167822055605506,
        "lon": 168.00608883942036,
        "alt_km": 35783.87010928186,
        "timestamp": "2025-12-02T06:27:52.664105+00:00",
        "meta_object_name": "METEOSAT-12 (MTG-I1)",
        "meta_object_id": "2022-170C",
        "meta_epoch": "2025-12-01T18:56:59.763840",
        "meta_mean_motion": 1.00273472,
        "meta_eccentricity": 0.0001435,
        "meta_inclination": 0.715,
        "meta_ra_of_asc_node": 29.717,
        "meta_arg_of_pericenter": 212.407,
        "meta_mean_anomaly": 112.727,
        "meta_ephemeris_type": 0,
        "meta_classification_type": "U",
        "meta_norad_cat_id": 54743,
        "meta_element_set_no": 999,
        "meta_rev_at_epoch": 1099,
        "meta_bstar": 0,
        "meta_mean_motion_dot": 1.4e-07,
        "meta_mean_motion_ddot": 0,
        "tle_line1": "1 54743U 22170C   25335.78958060  .00000014  00000+0  00000+0 0  9999",
        "tle_line2": "2 54743   0.7150  29.7170 0001435 212.4070 112.7270  1.00273472 10998"
      },
      "geometry": {
        "type": "Point",
        "coordinates": [
          168.00608883942036,
          0.46167822055605506
        ]
      }
    }
  ]
}